[{"OBJECT_NAME":"CANVAS","OBJECT_ID":"2026-074J","EPOCH":"2026-04-18T13:05:22.664544","MEAN_MOTION":15.24024365,"ECCENTRICITY":0.00190635,"INCLINATION":60.0251,"RA_OF_ASC_NODE":46.9627,"ARG_OF_PERICENTER":330.0508,"MEAN_ANOMALY":29.948,"EPHEMERIS_TYPE":0,"CLASSIFICATION_TYPE":"U","NORAD_CAT_ID":68635,"ELEMENT_SET_NO":999,"REV_AT_EPOCH":169,"BSTAR":0.00045365853,"MEAN_MOTION_DOT":0.0001087,"MEAN_MOTION_DDOT":0},{"OBJECT_NAME":"QIANFAN-109","OBJECT_ID":"2026-075A","EPOCH":"2026-04-20T13:02:29.187168","MEAN_MOTION":14.19019183,"ECCENTRICITY":0.0014387,"INCLINATION":88.9903,"RA_OF_ASC_NODE":327.2217,"ARG_OF_PERICENTER":170.4584,"MEAN_ANOMALY":189.6882,"EPHEMERIS_TYPE":0,"CLASSIFICATION_TYPE":"U","NORAD_CAT_ID":68636,"ELEMENT_SET_NO":999,"REV_AT_EPOCH":184,"BSTAR":5.6336341e-5,"MEAN_MOTION_DOT":1.32e-6,"MEAN_MOTION_DDOT":0},{"OBJECT_NAME":"QIANFAN-110","OBJECT_ID":"2026-075B","EPOCH":"2026-04-17T22:20:56.754816","MEAN_MOTION":14.21658238,"ECCENTRICITY":0.00145716,"INCLINATION":88.991,"RA_OF_ASC_NODE":327.5202,"ARG_OF_PERICENTER":179.2967,"MEAN_ANOMALY":180.8247,"EPHEMERIS_TYPE":0,"CLASSIFICATION_TYPE":"U","NORAD_CAT_ID":68637,"ELEMENT_SET_NO":999,"REV_AT_EPOCH":147,"BSTAR":0.00011167565,"MEAN_MOTION_DOT":2.6e-6,"MEAN_MOTION_DDOT":0},{"OBJECT_NAME":"QIANFAN-111","OBJECT_ID":"2026-075C","EPOCH":"2026-04-20T12:52:57.118080","MEAN_MOTION":14.19370415,"ECCENTRICITY":0.00159188,"INCLINATION":88.9872,"RA_OF_ASC_NODE":327.2235,"ARG_OF_PERICENTER":170.2122,"MEAN_ANOMALY":189.9382,"EPHEMERIS_TYPE":0,"CLASSIFICATION_TYPE":"U","NORAD_CAT_ID":68638,"ELEMENT_SET_NO":999,"REV_AT_EPOCH":184,"BSTAR":1.6497841e-5,"MEAN_MOTION_DOT":4.9e-7,"MEAN_MOTION_DDOT":0},{"OBJECT_NAME":"QIANFAN-112","OBJECT_ID":"2026-075D","EPOCH":"2026-04-20T12:55:42.288960","MEAN_MOTION":14.19383219,"ECCENTRICITY":0.00166326,"INCLINATION":88.9891,"RA_OF_ASC_NODE":327.2168,"ARG_OF_PERICENTER":171.4592,"MEAN_ANOMALY":188.6884,"EPHEMERIS_TYPE":0,"CLASSIFICATION_TYPE":"U","NORAD_CAT_ID":68639,"ELEMENT_SET_NO":999,"REV_AT_EPOCH":184,"BSTAR":9.4692281e-5,"MEAN_MOTION_DOT":2.14e-6,"MEAN_MOTION_DDOT":0},{"OBJECT_NAME":"QIANFAN-113","OBJECT_ID":"2026-075E","EPOCH":"2026-04-20T12:46:25.991328","MEAN_MOTION":14.19942895,"ECCENTRICITY":0.0015209,"INCLINATION":88.9904,"RA_OF_ASC_NODE":327.2244,"ARG_OF_PERICENTER":173.3657,"MEAN_ANOMALY":186.7738,"EPHEMERIS_TYPE":0,"CLASSIFICATION_TYPE":"U","NORAD_CAT_ID":68640,"ELEMENT_SET_NO":999,"REV_AT_EPOCH":184,"BSTAR":0.00014528461,"MEAN_MOTION_DOT":3.23e-6,"MEAN_MOTION_DDOT":0},{"OBJECT_NAME":"QIANFAN-114","OBJECT_ID":"2026-075F","EPOCH":"2026-04-20T12:38:37.946976","MEAN_MOTION":14.21498459,"ECCENTRICITY":0.00154395,"INCLINATION":88.9905,"RA_OF_ASC_NODE":327.2194,"ARG_OF_PERICENTER":173.0708,"MEAN_ANOMALY":187.0699,"EPHEMERIS_TYPE":0,"CLASSIFICATION_TYPE":"U","NORAD_CAT_ID":68641,"ELEMENT_SET_NO":999,"REV_AT_EPOCH":184,"BSTAR":7.3190136e-5,"MEAN_MOTION_DOT":1.75e-6,"MEAN_MOTION_DDOT":0},{"OBJECT_NAME":"QIANFAN-115","OBJECT_ID":"2026-075G","EPOCH":"2026-04-20T12:35:24.391104","MEAN_MOTION":14.20379834,"ECCENTRICITY":0.00146043,"INCLINATION":88.988,"RA_OF_ASC_NODE":327.2132,"ARG_OF_PERICENTER":175.2205,"MEAN_ANOMALY":184.9127,"EPHEMERIS_TYPE":0,"CLASSIFICATION_TYPE":"U","NORAD_CAT_ID":68642,"ELEMENT_SET_NO":999,"REV_AT_EPOCH":184,"BSTAR":1.559805e-5,"MEAN_MOTION_DOT":4.8e-7,"MEAN_MOTION_DDOT":0},{"OBJECT_NAME":"QIANFAN-116","OBJECT_ID":"2026-075H","EPOCH":"2026-04-20T09:13:14.736576","MEAN_MOTION":14.23020631,"ECCENTRICITY":0.00149223,"INCLINATION":88.9904,"RA_OF_ASC_NODE":327.2351,"ARG_OF_PERICENTER":172.4446,"MEAN_ANOMALY":187.6974,"EPHEMERIS_TYPE":0,"CLASSIFICATION_TYPE":"U","NORAD_CAT_ID":68643,"ELEMENT_SET_NO":999,"REV_AT_EPOCH":182,"BSTAR":8.1849148e-5,"MEAN_MOTION_DOT":1.99e-6,"MEAN_MOTION_DDOT":0},{"OBJECT_NAME":"QIANFAN-117","OBJECT_ID":"2026-075J","EPOCH":"2026-04-20T14:22:38.227584","MEAN_MOTION":14.20548421,"ECCENTRICITY":0.0012533,"INCLINATION":88.9923,"RA_OF_ASC_NODE":327.2095,"ARG_OF_PERICENTER":180.6056,"MEAN_ANOMALY":179.5122,"EPHEMERIS_TYPE":0,"CLASSIFICATION_TYPE":"U","NORAD_CAT_ID":68644,"ELEMENT_SET_NO":999,"REV_AT_EPOCH":185,"BSTAR":5.4190977e-5,"MEAN_MOTION_DOT":1.31e-6,"MEAN_MOTION_DDOT":0},{"OBJECT_NAME":"QIANFAN-118","OBJECT_ID":"2026-075K","EPOCH":"2026-04-20T10:54:20.809728","MEAN_MOTION":14.21898133,"ECCENTRICITY":0.00147844,"INCLINATION":88.9903,"RA_OF_ASC_NODE":327.227,"ARG_OF_PERICENTER":171.301,"MEAN_ANOMALY":188.844,"EPHEMERIS_TYPE":0,"CLASSIFICATION_TYPE":"U","NORAD_CAT_ID":68645,"ELEMENT_SET_NO":999,"REV_AT_EPOCH":183,"BSTAR":7.9293324e-5,"MEAN_MOTION_DOT":1.89e-6,"MEAN_MOTION_DDOT":0},{"OBJECT_NAME":"QIANFAN-119","OBJECT_ID":"2026-075L","EPOCH":"2026-04-20T12:32:26.550528","MEAN_MOTION":14.22769928,"ECCENTRICITY":0.00147158,"INCLINATION":88.9906,"RA_OF_ASC_NODE":327.2188,"ARG_OF_PERICENTER":172.3843,"MEAN_ANOMALY":187.7575,"EPHEMERIS_TYPE":0,"CLASSIFICATION_TYPE":"U","NORAD_CAT_ID":68646,"ELEMENT_SET_NO":999,"REV_AT_EPOCH":184,"BSTAR":7.1476344e-5,"MEAN_MOTION_DOT":1.75e-6,"MEAN_MOTION_DDOT":0},{"OBJECT_NAME":"QIANFAN-120","OBJECT_ID":"2026-075M","EPOCH":"2026-04-20T12:29:29.578272","MEAN_MOTION":14.22211703,"ECCENTRICITY":0.00148123,"INCLINATION":88.9906,"RA_OF_ASC_NODE":327.2184,"ARG_OF_PERICENTER":172.3771,"MEAN_ANOMALY":187.7649,"EPHEMERIS_TYPE":0,"CLASSIFICATION_TYPE":"U","NORAD_CAT_ID":68647,"ELEMENT_SET_NO":999,"REV_AT_EPOCH":184,"BSTAR":7.8294139e-5,"MEAN_MOTION_DOT":1.88e-6,"MEAN_MOTION_DDOT":0},{"OBJECT_NAME":"QIANFAN-121","OBJECT_ID":"2026-075N","EPOCH":"2026-04-20T12:27:27.512352","MEAN_MOTION":14.22350971,"ECCENTRICITY":0.00142366,"INCLINATION":88.9906,"RA_OF_ASC_NODE":327.2181,"ARG_OF_PERICENTER":173.4291,"MEAN_ANOMALY":186.709,"EPHEMERIS_TYPE":0,"CLASSIFICATION_TYPE":"U","NORAD_CAT_ID":68648,"ELEMENT_SET_NO":999,"REV_AT_EPOCH":184,"BSTAR":0.00019849821,"MEAN_MOTION_DOT":4.56e-6,"MEAN_MOTION_DDOT":0},{"OBJECT_NAME":"QIANFAN-122","OBJECT_ID":"2026-075P","EPOCH":"2026-04-20T12:25:09.394176","MEAN_MOTION":14.22895557,"ECCENTRICITY":0.00143705,"INCLINATION":88.9904,"RA_OF_ASC_NODE":327.2179,"ARG_OF_PERICENTER":172.5701,"MEAN_ANOMALY":187.5706,"EPHEMERIS_TYPE":0,"CLASSIFICATION_TYPE":"U","NORAD_CAT_ID":68649,"ELEMENT_SET_NO":999,"REV_AT_EPOCH":184,"BSTAR":2.2594826e-5,"MEAN_MOTION_DOT":6.5e-7,"MEAN_MOTION_DDOT":0},{"OBJECT_NAME":"QIANFAN-123","OBJECT_ID":"2026-075Q","EPOCH":"2026-04-20T12:37:10.538688","MEAN_MOTION":14.20193581,"ECCENTRICITY":0.00149705,"INCLINATION":88.9896,"RA_OF_ASC_NODE":327.2188,"ARG_OF_PERICENTER":178.8062,"MEAN_ANOMALY":181.3167,"EPHEMERIS_TYPE":0,"CLASSIFICATION_TYPE":"U","NORAD_CAT_ID":68650,"ELEMENT_SET_NO":999,"REV_AT_EPOCH":181,"BSTAR":0.012195148,"MEAN_MOTION_DOT":0.00026141,"MEAN_MOTION_DDOT":0},{"OBJECT_NAME":"QIANFAN-124","OBJECT_ID":"2026-075R","EPOCH":"2026-04-20T14:05:36.250368","MEAN_MOTION":14.22716606,"ECCENTRICITY":0.00148784,"INCLINATION":88.9905,"RA_OF_ASC_NODE":327.2098,"ARG_OF_PERICENTER":172.1099,"MEAN_ANOMALY":188.0329,"EPHEMERIS_TYPE":0,"CLASSIFICATION_TYPE":"U","NORAD_CAT_ID":68651,"ELEMENT_SET_NO":999,"REV_AT_EPOCH":185,"BSTAR":0.00082215484,"MEAN_MOTION_DOT":1.857e-5,"MEAN_MOTION_DDOT":0}]
