CANVAS
1 68635U 26074J   26108.54540121  .00010870  00000+0  45366-3 0  9998
2 68635  60.0251  46.9627 0019063 330.0508  29.9480 15.24024365  1696
QIANFAN-109
1 68636U 26075A   26110.54339337  .00000132  00000+0  56336-4 0  9998
2 68636  88.9903 327.2217 0014387 170.4584 189.6882 14.19019183  1846
QIANFAN-110
1 68637U 26075B   26107.93121244  .00000260  00000+0  11168-3 0  9999
2 68637  88.9910 327.5202 0014571 179.2967 180.8247 14.21658238  1479
QIANFAN-111
1 68638U 26075C   26110.53677220  .00000049  00000+0  16498-4 0  9997
2 68638  88.9872 327.2235 0015918 170.2122 189.9382 14.19370415  1846
QIANFAN-112
1 68639U 26075D   26110.53868390  .00000214  00000+0  94692-4 0  9994
2 68639  88.9891 327.2168 0016632 171.4592 188.6884 14.19383219  1840
QIANFAN-113
1 68640U 26075E   26110.53224527  .00000323  00000+0  14528-3 0  9994
2 68640  88.9904 327.2244 0015209 173.3657 186.7738 14.19942895  1842
QIANFAN-114
1 68641U 26075F   26110.52682809  .00000175  00000+0  73190-4 0  9991
2 68641  88.9905 327.2194 0015439 173.0708 187.0699 14.21498459  1842
QIANFAN-115
1 68642U 26075G   26110.52458786  .00000048  00000+0  15598-4 0  9994
2 68642  88.9880 327.2132 0014604 175.2205 184.9127 14.20379834  1842
QIANFAN-116
1 68643U 26075H   26110.38419834  .00000199  00000+0  81849-4 0  9999
2 68643  88.9904 327.2351 0014922 172.4446 187.6974 14.23020631  1821
QIANFAN-117
1 68644U 26075J   26110.59905356  .00000131  00000+0  54191-4 0  9998
2 68644  88.9923 327.2095 0012533 180.6056 179.5122 14.20548421  1859
QIANFAN-118
1 68645U 26075K   26110.45440752  .00000189  00000+0  79293-4 0  9991
2 68645  88.9903 327.2270 0014784 171.3010 188.8440 14.21898133  1833
QIANFAN-119
1 68646U 26075L   26110.52252952  .00000175  00000+0  71476-4 0  9993
2 68646  88.9906 327.2188 0014715 172.3843 187.7575 14.22769928  1842
QIANFAN-120
1 68647U 26075M   26110.52048123  .00000188  00000+0  78294-4 0  9996
2 68647  88.9906 327.2184 0014812 172.3771 187.7649 14.22211703  1842
QIANFAN-121
1 68648U 26075N   26110.51906843  .00000456  00000+0  19850-3 0  9998
2 68648  88.9906 327.2181 0014236 173.4291 186.7090 14.22350971  1849
QIANFAN-122
1 68649U 26075P   26110.51746984  .00000065  00000+0  22595-4 0  9994
2 68649  88.9904 327.2179 0014370 172.5701 187.5706 14.22895557  1847
QIANFAN-123
1 68650U 26075Q   26110.52581642  .00026141  00000+0  12195-1 0  9990
2 68650  88.9896 327.2188 0014970 178.8062 181.3167 14.20193581  1810
QIANFAN-124
1 68651U 26075R   26110.58722512  .00001857  00000+0  82215-3 0  9999
2 68651  88.9905 327.2098 0014878 172.1099 188.0329 14.22716606  1855
